ONEWEB-0377             
1 49303U 21090AA  23362.73157301 -.00000043  00000+0 -13701-3 0  9997
2 49303  87.9200  93.8763 0001909 100.2306 259.9042 13.20774686112801
ONEWEB-0378             
1 49304U 21090AB  23362.78270220 -.00000110  00000+0 -30312-3 0  9991
2 49304  87.9203  93.8794 0001340 106.8384 253.2896 13.20773175110798
ONEWEB-0379             
1 49305U 21090AC  23362.80328422 -.00000119  00000+0 -35597-3 0  9992
2 49305  87.8974 109.1300 0001546 109.9395 250.1901 13.14503425109143
ONEWEB-0380             
1 49306U 21090AD  23362.87507904 -.00000054  00000+0 -16700-3 0  9997
2 49306  87.9197 124.3806 0001683 103.6088 256.5232 13.19724553107545
ONEWEB-0381             
1 49307U 21090AE  23362.87976950 -.00000032  00000+0 -11123-3 0  9999
2 49307  87.9201  93.8532 0001745 102.6503 257.4826 13.20772678110858
ONEWEB-0382             
1 49308U 21090AF  23362.79139387  .00000039  00000+0  63091-4 0  9993
2 49308  87.9200  93.8684 0001241 102.0422 258.0851 13.20775873110834
ONEWEB-0383             
1 49309U 21090AG  23362.79692819 -.00000245  00000+0 -69427-3 0  9997
2 49309  87.8982 109.1220 0001376 112.0407 248.0869 13.14504527109173
ONEWEB-0384             
1 49310U 21090AH  23362.71247046 -.00000318  00000+0 -81352-3 0  9991
2 49310  87.9199  93.8932 0001083  95.9734 264.1523 13.20771783112146
